start=new Date('2022-01-09T00:00:00.000Z').valueOf();
sats=[{"ECCENTRICITY":"0.00017280","RA_OF_ASC_NODE":"349.5265","CLASSIFICATION_TYPE":"U","FILE":"3267514","OBJECT_NAME":"STARLINK-2636","REV_AT_EPOCH":"3778","MEAN_MOTION_DOT":"0.00002101","LAUNCH_DATE":"2021-05-04","MEAN_ANOMALY":"288.9863","ELEMENT_SET_NO":"999","EPHEMERIS_TYPE":"0","APOAPSIS":"548.417","EPOCH":"2022-01-08T17:12:55.574496","OBJECT_ID":"2021-038E","ARG_OF_PERICENTER":"71.1314","PERIOD":"95.592","RCS_SIZE":"LARGE","REF_FRAME":"TEME","GP_ID":"193491005","SITE":"AFETR","SEMIMAJOR_AXIS":"6925.356","MEAN_MOTION":"15.06397683","COUNTRY_CODE":"US","TLE_LINE1":"1 48357U 21038E   22008.71730989  .00002101  00000-0  15993-3 0  9991","BSTAR":"0.00015993000000","TIME_SYSTEM":"UTC","CENTER_NAME":"EARTH","DECAY_DATE":null,"MEAN_ELEMENT_THEORY":"SGP4","OBJECT_TYPE":"PAYLOAD","INCLINATION":"53.0566","MEAN_MOTION_DDOT":"0.0000000000000","PERIAPSIS":"546.024","NORAD_CAT_ID":"48357","TLE_LINE2":"2 48357  53.0566 349.5265 0001728  71.1314 288.9863 15.06397683 37780"},{"APOAPSIS":"548.388","EPHEMERIS_TYPE":"0","ELEMENT_SET_NO":"999","EPOCH":"2022-01-08T09:09:54.421632","MEAN_ANOMALY":"287.5395","REF_FRAME":"TEME","PERIOD":"95.592","RCS_SIZE":"LARGE","OBJECT_ID":"2021-038F","ARG_OF_PERICENTER":"72.5780","OBJECT_NAME":"STARLINK-2624","FILE":"3267464","CLASSIFICATION_TYPE":"U","RA_OF_ASC_NODE":"351.0268","ECCENTRICITY":"0.00017100","LAUNCH_DATE":"2021-05-04","MEAN_MOTION_DOT":"0.00001788","REV_AT_EPOCH":"3831","OBJECT_TYPE":"PAYLOAD","MEAN_ELEMENT_THEORY":"SGP4","MEAN_MOTION_DDOT":"0.0000000000000","INCLINATION":"53.0555","CENTER_NAME":"EARTH","DECAY_DATE":null,"TLE_LINE2":"2 48358  53.0555 351.0268 0001710  72.5780 287.5395 15.06403223 38316","NORAD_CAT_ID":"48358","PERIAPSIS":"546.019","MEAN_MOTION":"15.06403223","SITE":"AFETR","GP_ID":"193468654","SEMIMAJOR_AXIS":"6925.339","TIME_SYSTEM":"UTC","TLE_LINE1":"1 48358U 21038F   22008.38187988  .00001788  00000-0  13889-3 0  9992","BSTAR":"0.00013889000000","COUNTRY_CODE":"US"},{"PERIAPSIS":"545.910","TLE_LINE2":"2 48359  53.0569 349.2639 0001862  69.9230 290.1959 15.06404439 37787","NORAD_CAT_ID":"48359","CENTER_NAME":"EARTH","DECAY_DATE":null,"OBJECT_TYPE":"PAYLOAD","MEAN_ELEMENT_THEORY":"SGP4","INCLINATION":"53.0569","MEAN_MOTION_DDOT":"0.0000000000000","COUNTRY_CODE":"US","TIME_SYSTEM":"UTC","TLE_LINE1":"1 48359U 21038G   22008.77627367  .00001522  00000-0  12104-3 0  9991","BSTAR":"0.00012104000000","GP_ID":"193490504","SITE":"AFETR","SEMIMAJOR_AXIS":"6925.335","MEAN_MOTION":"15.06404439","OBJECT_ID":"2021-038G","ARG_OF_PERICENTER":"69.9230","REF_FRAME":"TEME","PERIOD":"95.592","RCS_SIZE":"LARGE","MEAN_ANOMALY":"290.1959","APOAPSIS":"548.489","EPHEMERIS_TYPE":"0","ELEMENT_SET_NO":"999","EPOCH":"2022-01-08T18:37:50.045088","LAUNCH_DATE":"2021-05-04","REV_AT_EPOCH":"3778","MEAN_MOTION_DOT":"0.00001522","RA_OF_ASC_NODE":"349.2639","ECCENTRICITY":"0.00018620","FILE":"3267514","OBJECT_NAME":"STARLINK-2628","CLASSIFICATION_TYPE":"U"},{"TIME_SYSTEM":"UTC","TLE_LINE1":"1 48360U 21038H   22008.77259824 -.00000077  00000-0  13703-4 0  9994","BSTAR":"0.00001370300000","COUNTRY_CODE":"US","MEAN_MOTION":"15.06393015","GP_ID":"193490754","SITE":"AFETR","SEMIMAJOR_AXIS":"6925.370","TLE_LINE2":"2 48360  53.0583 349.2749 0001677  63.5433 296.5728 15.06393015 37787","NORAD_CAT_ID":"48360","PERIAPSIS":"546.074","OBJECT_TYPE":"PAYLOAD","MEAN_ELEMENT_THEORY":"SGP4","MEAN_MOTION_DDOT":"0.0000000000000","INCLINATION":"53.0583","CENTER_NAME":"EARTH","DECAY_DATE":null,"LAUNCH_DATE":"2021-05-04","MEAN_MOTION_DOT":"-0.00000077","REV_AT_EPOCH":"3778","FILE":"3267514","OBJECT_NAME":"STARLINK-2622","CLASSIFICATION_TYPE":"U","RA_OF_ASC_NODE":"349.2749","ECCENTRICITY":"0.00016770","REF_FRAME":"TEME","PERIOD":"95.593","RCS_SIZE":"LARGE","OBJECT_ID":"2021-038H","ARG_OF_PERICENTER":"63.5433","APOAPSIS":"548.396","EPHEMERIS_TYPE":"0","ELEMENT_SET_NO":"999","EPOCH":"2022-01-08T18:32:32.487936","MEAN_ANOMALY":"296.5728"},{"MEAN_ANOMALY":"292.2129","ELEMENT_SET_NO":"999","APOAPSIS":"548.419","EPHEMERIS_TYPE":"0","EPOCH":"2022-01-08T08:53:59.761248","OBJECT_ID":"2021-038J","ARG_OF_PERICENTER":"67.9043","RCS_SIZE":"LARGE","PERIOD":"95.592","REF_FRAME":"TEME","ECCENTRICITY":"0.00017240","RA_OF_ASC_NODE":"351.0955","CLASSIFICATION_TYPE":"U","FILE":"3267276","OBJECT_NAME":"STARLINK-2591","MEAN_MOTION_DOT":"0.00000203","REV_AT_EPOCH":"3772","LAUNCH_DATE":"2021-05-04","CENTER_NAME":"EARTH","DECAY_DATE":null,"OBJECT_TYPE":"PAYLOAD","MEAN_ELEMENT_THEORY":"SGP4","MEAN_MOTION_DDOT":"0.0000000000000","INCLINATION":"53.0499","PERIAPSIS":"546.031","NORAD_CAT_ID":"48361","TLE_LINE2":"2 48361  53.0499 351.0955 0001724  67.9043 292.2129 15.06396319 37724","GP_ID":"193460674","SITE":"AFETR","SEMIMAJOR_AXIS":"6925.360","MEAN_MOTION":"15.06396319","COUNTRY_CODE":"US","BSTAR":"0.00003256400000","TLE_LINE1":"1 48361U 21038J   22008.37083057  .00000203  00000-0  32564-4 0  9990","TIME_SYSTEM":"UTC"},{"PERIAPSIS":"546.112","NORAD_CAT_ID":"48362","TLE_LINE2":"2 48362  53.0601 349.7679 0001548  65.1057 295.0093 15.06409662 37778","CENTER_NAME":"EARTH","DECAY_DATE":null,"OBJECT_TYPE":"PAYLOAD","MEAN_ELEMENT_THEORY":"SGP4","INCLINATION":"53.0601","MEAN_MOTION_DDOT":"0.0000000000000","COUNTRY_CODE":"US","TLE_LINE1":"1 48362U 21038K   22008.66107558 -.00002489  00000-0 -14821-3 0  9991","BSTAR":"-0.00014821000000","TIME_SYSTEM":"UTC","SITE":"AFETR","GP_ID":"193491256","SEMIMAJOR_AXIS":"6925.319","MEAN_MOTION":"15.06409662","OBJECT_ID":"2021-038K","ARG_OF_PERICENTER":"65.1057","RCS_SIZE":"LARGE","PERIOD":"95.592","REF_FRAME":"TEME","MEAN_ANOMALY":"295.0093","ELEMENT_SET_NO":"999","EPHEMERIS_TYPE":"0","APOAPSIS":"548.256","EPOCH":"2022-01-08T15:51:56.930112","REV_AT_EPOCH":"3777","MEAN_MOTION_DOT":"-0.00002489","LAUNCH_DATE":"2021-05-04","ECCENTRICITY":"0.00015480","RA_OF_ASC_NODE":"349.7679","CLASSIFICATION_TYPE":"U","FILE":"3267514","OBJECT_NAME":"STARLINK-2578"},{"ECCENTRICITY":"0.00018130","RA_OF_ASC_NODE":"345.8838","CLASSIFICATION_TYPE":"U","OBJECT_NAME":"STARLINK-2626","FILE":"3267276","MEAN_MOTION_DOT":"-0.00000754","REV_AT_EPOCH":"3780","LAUNCH_DATE":"2021-05-04","MEAN_ANOMALY":"292.9928","ELEMENT_SET_NO":"999","EPHEMERIS_TYPE":"0","APOAPSIS":"548.483","EPOCH":"2022-01-08T09:55:41.870784","OBJECT_ID":"2021-038L","ARG_OF_PERICENTER":"67.1252","PERIOD":"95.592","RCS_SIZE":"LARGE","REF_FRAME":"TEME","GP_ID":"193460173","SITE":"AFETR","SEMIMAJOR_AXIS":"6925.363","MEAN_MOTION":"15.06395431","COUNTRY_CODE":"US","BSTAR":"-0.00003171300000","TLE_LINE1":"1 48363U 21038L   22008.41367906 -.00000754  00000-0 -31713-4 0  9993","TIME_SYSTEM":"UTC","CENTER_NAME":"EARTH","DECAY_DATE":null,"MEAN_ELEMENT_THEORY":"SGP4","OBJECT_TYPE":"PAYLOAD","INCLINATION":"53.0565","MEAN_MOTION_DDOT":"0.0000000000000","PERIAPSIS":"545.972","NORAD_CAT_ID":"48363","TLE_LINE2":"2 48363  53.0565 345.8838 0001813  67.1252 292.9928 15.06395431 37801"},{"OBJECT_TYPE":"PAYLOAD","MEAN_ELEMENT_THEORY":"SGP4","MEAN_MOTION_DDOT":"0.0000000000000","INCLINATION":"53.0570","CENTER_NAME":"EARTH","DECAY_DATE":null,"NORAD_CAT_ID":"48364","TLE_LINE2":"2 48364  53.0570 346.2066 0001617  67.0507 293.0652 15.06397430 37795","PERIAPSIS":"546.102","MEAN_MOTION":"15.06397430","GP_ID":"193460423","SITE":"AFETR","SEMIMAJOR_AXIS":"6925.356","TLE_LINE1":"1 48364U 21038M   22008.34269837  .00001659  00000-0  13023-3 0  9996","BSTAR":"0.00013023000000","TIME_SYSTEM":"UTC","COUNTRY_CODE":"US","ELEMENT_SET_NO":"999","EPHEMERIS_TYPE":"0","APOAPSIS":"548.341","EPOCH":"2022-01-08T08:13:29.139168","MEAN_ANOMALY":"293.0652","RCS_SIZE":"LARGE","PERIOD":"95.592","REF_FRAME":"TEME","OBJECT_ID":"2021-038M","ARG_OF_PERICENTER":"67.0507","CLASSIFICATION_TYPE":"U","FILE":"3267276","OBJECT_NAME":"STARLINK-2611","ECCENTRICITY":"0.00016170","RA_OF_ASC_NODE":"346.2066","REV_AT_EPOCH":"3779","MEAN_MOTION_DOT":"0.00001659","LAUNCH_DATE":"2021-05-04"},{"PERIOD":"95.593","RCS_SIZE":"LARGE","REF_FRAME":"TEME","ARG_OF_PERICENTER":"66.5628","OBJECT_ID":"2021-038N","EPOCH":"2022-01-08T15:40:42.090816","ELEMENT_SET_NO":"999","APOAPSIS":"548.378","EPHEMERIS_TYPE":"0","MEAN_ANOMALY":"293.5535","REV_AT_EPOCH":"3784","MEAN_MOTION_DOT":"-0.00000492","LAUNCH_DATE":"2021-05-04","CLASSIFICATION_TYPE":"U","FILE":"3267514","OBJECT_NAME":"STARLINK-2608","ECCENTRICITY":"0.00016560","RA_OF_ASC_NODE":"344.8214","NORAD_CAT_ID":"48365","TLE_LINE2":"2 48365  53.0577 344.8214 0001656  66.5628 293.5535 15.06394251 37842","PERIAPSIS":"546.084","MEAN_MOTION_DDOT":"0.0000000000000","INCLINATION":"53.0577","MEAN_ELEMENT_THEORY":"SGP4","OBJECT_TYPE":"PAYLOAD","DECAY_DATE":null,"CENTER_NAME":"EARTH","TLE_LINE1":"1 48365U 21038N   22008.65326494 -.00000492  00000-0 -14110-4 0  9999","BSTAR":"-0.00001411000000","TIME_SYSTEM":"UTC","COUNTRY_CODE":"US","MEAN_MOTION":"15.06394251","SEMIMAJOR_AXIS":"6925.366","SITE":"AFETR","GP_ID":"193491006"},{"RCS_SIZE":"LARGE","PERIOD":"95.593","REF_FRAME":"TEME","ARG_OF_PERICENTER":"64.1110","OBJECT_ID":"2021-038P","EPOCH":"2022-01-08T07:25:05.672352","ELEMENT_SET_NO":"999","EPHEMERIS_TYPE":"0","APOAPSIS":"548.440","MEAN_ANOMALY":"296.0058","MEAN_MOTION_DOT":"0.00001438","REV_AT_EPOCH":"3785","LAUNCH_DATE":"2021-05-04","CLASSIFICATION_TYPE":"U","OBJECT_NAME":"STARLINK-2631","FILE":"3267276","ECCENTRICITY":"0.00017380","RA_OF_ASC_NODE":"341.3534","NORAD_CAT_ID":"48366","TLE_LINE2":"2 48366  53.0563 341.3534 0001738  64.1110 296.0058 15.06392485 37852","PERIAPSIS":"546.033","INCLINATION":"53.0563","MEAN_MOTION_DDOT":"0.0000000000000","OBJECT_TYPE":"PAYLOAD","MEAN_ELEMENT_THEORY":"SGP4","DECAY_DATE":null,"CENTER_NAME":"EARTH","TLE_LINE1":"1 48366U 21038P   22008.30909343  .00001438  00000-0  11544-3 0  9998","BSTAR":"0.00011544000000","TIME_SYSTEM":"UTC","COUNTRY_CODE":"US","MEAN_MOTION":"15.06392485","SEMIMAJOR_AXIS":"6925.372","GP_ID":"193461412","SITE":"AFETR"}];
